2022-023A               
1 51946U 22023A   26066.38437076  .00004303  00000+0  19500-3 0  9999
2 51946  63.4765 256.0240 0098533 341.4326  18.3199 15.18202647222269
STARLINK-34420          
1 64483U 25133M   26068.42537117  .00030904  00000+0  10515-2 0  9990
2 64483  53.1574 117.6231 0001190  87.5996 272.5141 15.30191434 41152
